{"type": "FeatureCollection", "features": [ {"type": "Feature", "properties": {"norad_id": 38552, "name": "METEOSAT-10 (MSG-3)", "group": "weather", "lat": 1.4997351418475915, "lon": 82.00488321385355, "alt_km": 35785.610831082726, "timestamp": "2025-12-18T23:35:48.688746+00:00", "meta": {"OBJECT_NAME": "METEOSAT-10 (MSG-3)", "OBJECT_ID": "2012-035B", "EPOCH": "2025-12-18T08:09:39.923424", "MEAN_MOTION": 1.00276373, "ECCENTRICITY": 6.961e-05, "INCLINATION": 4.2412, "RA_OF_ASC_NODE": 61.7092, "ARG_OF_PERICENTER": 269.8474, "MEAN_ANOMALY": 238.319, "EPHEMERIS_TYPE": 0, "CLASSIFICATION_TYPE": "U", "NORAD_CAT_ID": 38552, "ELEMENT_SET_NO": 999, "REV_AT_EPOCH": 4904, "BSTAR": 0, "MEAN_MOTION_DOT": 1.7e-07, "MEAN_MOTION_DDOT": 0}, "tle": {"line1": "1 38552U 12035B   25352.34004541  .00000017  00000+0  00000+0 0  9998", "line2": "2 38552   4.2412  61.7092 0000696 269.8474 238.3190  1.00276373 49046"}}, "geometry": {"type": "Point", "coordinates": [82.00488321385355, 1.4997351418475915]}}, {"type": "Feature", "properties": {"norad_id": 38771, "name": "METOP-B", "group": "weather", "lat": -21.835710657617746, "lon": 46.34487113690402, "alt_km": 827.8565588776073, "timestamp": "2025-12-18T23:35:48.688757+00:00", "meta": {"OBJECT_NAME": "METOP-B", "OBJECT_ID": "2012-049A", "EPOCH": "2025-12-18T15:15:12.822048", "MEAN_MOTION": 14.21410591, "ECCENTRICITY": 0.00031148, "INCLINATION": 98.6792, "RA_OF_ASC_NODE": 42.4942, "ARG_OF_PERICENTER": 131.7383, "MEAN_ANOMALY": 228.4061, "EPHEMERIS_TYPE": 0, "CLASSIFICATION_TYPE": "U", "NORAD_CAT_ID": 38771, "ELEMENT_SET_NO": 999, "REV_AT_EPOCH": 68761, "BSTAR": 7.53574e-05, "MEAN_MOTION_DOT": 1.21e-06, "MEAN_MOTION_DDOT": 0}, "tle": {"line1": "1 38771U 12049A   25352.63556507  .00000121  00000+0  75357-4 0  9990", "line2": "2 38771  98.6792  42.4942 0003114 131.7383 228.4061 14.21410591687618"}}, "geometry": {"type": "Point", "coordinates": [46.34487113690402, -21.835710657617746]}}, {"type": "Feature", "properties": {"norad_id": 39216, "name": "INSAT-3D", "group": "weather", "lat": 1.1590324282555458, "lon": -148.75627084543086, "alt_km": 35783.33237345712, "timestamp": "2025-12-18T23:35:48.688770+00:00", "meta": {"OBJECT_NAME": "INSAT-3D", "OBJECT_ID": "2013-038B", "EPOCH": "2025-12-17T17:21:59.330304", "MEAN_MOTION": 1.00267779, "ECCENTRICITY": 0.00012009, "INCLINATION": 1.4572, "RA_OF_ASC_NODE": 84.9421, "ARG_OF_PERICENTER": 166.0293, "MEAN_ANOMALY": 225.6028, "EPHEMERIS_TYPE": 0, "CLASSIFICATION_TYPE": "U", "NORAD_CAT_ID": 39216, "ELEMENT_SET_NO": 999, "REV_AT_EPOCH": 4526, "BSTAR": 0, "MEAN_MOTION_DOT": -3.16e-06, "MEAN_MOTION_DDOT": 0}, "tle": {"line1": "1 39216U 13038B   25351.72360336 -.00000316  00000+0  00000+0 0  9991", "line2": "2 39216   1.4572  84.9421 0001200 166.0293 225.6028  1.00267779 45261"}}, "geometry": {"type": "Point", "coordinates": [-148.75627084543086, 1.1590324282555458]}}, {"type": "Feature", "properties": {"norad_id": 39260, "name": "FENGYUN 3C", "group": "weather", "lat": 79.29583770894345, "lon": -157.55532656547356, "alt_km": 830.9458992350019, "timestamp": "2025-12-18T23:35:48.688781+00:00", "meta": {"OBJECT_NAME": "FENGYUN 3C", "OBJECT_ID": "2013-052A", "EPOCH": "2025-12-18T14:39:38.138112", "MEAN_MOTION": 14.15698175, "ECCENTRICITY": 0.00146108, "INCLINATION": 98.4768, "RA_OF_ASC_NODE": 330.0037, "ARG_OF_PERICENTER": 178.8851, "MEAN_ANOMALY": 181.2359, "EPHEMERIS_TYPE": 0, "CLASSIFICATION_TYPE": "U", "NORAD_CAT_ID": 39260, "ELEMENT_SET_NO": 999, "REV_AT_EPOCH": 63301, "BSTAR": 6.6214225e-05, "MEAN_MOTION_DOT": 8.9e-07, "MEAN_MOTION_DDOT": 0}, "tle": {"line1": "1 39260U 13052A   25352.61085808  .00000089  00000+0  66214-4 0  9993", "line2": "2 39260  98.4768 330.0037 0014610 178.8851 181.2359 14.15698175633019"}}, "geometry": {"type": "Point", "coordinates": [-157.55532656547356, 79.29583770894345]}}, {"type": "Feature", "properties": {"norad_id": 40069, "name": "METEOR-M 2", "group": "weather", "lat": -25.603884240520635, "lon": 146.22395349193258, "alt_km": 822.6277486963972, "timestamp": "2025-12-18T23:35:48.688792+00:00", "meta": {"OBJECT_NAME": "METEOR-M 2", "OBJECT_ID": "2014-037A", "EPOCH": "2025-12-18T14:11:03.809184", "MEAN_MOTION": 14.21387964, "ECCENTRICITY": 0.00052281, "INCLINATION": 98.4897, "RA_OF_ASC_NODE": 329.9513, "ARG_OF_PERICENTER": 191.1052, "MEAN_ANOMALY": 169.0011, "EPHEMERIS_TYPE": 0, "CLASSIFICATION_TYPE": "U", "NORAD_CAT_ID": 40069, "ELEMENT_SET_NO": 999, "REV_AT_EPOCH": 59366, "BSTAR": -6.665163e-06, "MEAN_MOTION_DOT": -5.6e-07, "MEAN_MOTION_DDOT": 0}, "tle": {"line1": "1 40069U 14037A   25352.59101631 -.00000056  00000+0 -66652-5 0  9999", "line2": "2 40069  98.4897 329.9513 0005228 191.1052 169.0011 14.21387964593666"}}, "geometry": {"type": "Point", "coordinates": [146.22395349193258, -25.603884240520635]}}, {"type": "Feature", "properties": {"norad_id": 40267, "name": "HIMAWARI-8", "group": "weather", "lat": -0.0036044344130831776, "lon": -137.5595722390205, "alt_km": 35784.87554256579, "timestamp": "2025-12-18T23:35:48.688804+00:00", "meta": {"OBJECT_NAME": "HIMAWARI-8", "OBJECT_ID": "2014-060A", "EPOCH": "2025-12-18T13:42:40.020192", "MEAN_MOTION": 1.0027185, "ECCENTRICITY": 8.575e-05, "INCLINATION": 0.0103, "RA_OF_ASC_NODE": 91.2039, "ARG_OF_PERICENTER": 201.5636, "MEAN_ANOMALY": 141.0013, "EPHEMERIS_TYPE": 0, "CLASSIFICATION_TYPE": "U", "NORAD_CAT_ID": 40267, "ELEMENT_SET_NO": 999, "REV_AT_EPOCH": 4094, "BSTAR": 0, "MEAN_MOTION_DOT": -2.5e-06, "MEAN_MOTION_DDOT": 0}, "tle": {"line1": "1 40267U 14060A   25352.57129653 -.00000250  00000+0  00000+0 0  9991", "line2": "2 40267   0.0103  91.2039 0000857 201.5636 141.0013  1.00271850 40943"}}, "geometry": {"type": "Point", "coordinates": [-137.5595722390205, -0.0036044344130831776]}}, {"type": "Feature", "properties": {"norad_id": 40367, "name": "FENGYUN 2G", "group": "weather", "lat": 4.979989212364735, "lon": -178.84711469095714, "alt_km": 35789.982428002186, "timestamp": "2025-12-18T23:35:48.688817+00:00", "meta": {"OBJECT_NAME": "FENGYUN 2G", "OBJECT_ID": "2014-090A", "EPOCH": "2025-12-18T16:09:33.744672", "MEAN_MOTION": 1.00262073, "ECCENTRICITY": 0.00027618, "INCLINATION": 5.1827, "RA_OF_ASC_NODE": 75.0297, "ARG_OF_PERICENTER": 204.9924, "MEAN_ANOMALY": 149.2449, "EPHEMERIS_TYPE": 0, "CLASSIFICATION_TYPE": "U", "NORAD_CAT_ID": 40367, "ELEMENT_SET_NO": 999, "REV_AT_EPOCH": 4018, "BSTAR": 0, "MEAN_MOTION_DOT": -2.78e-06, "MEAN_MOTION_DDOT": 0}, "tle": {"line1": "1 40367U 14090A   25352.67330723 -.00000278  00000+0  00000+0 0  9998", "line2": "2 40367   5.1827  75.0297 0002761 204.9924 149.2449  1.00262073 40188"}}, "geometry": {"type": "Point", "coordinates": [-178.84711469095714, 4.979989212364735]}}, {"type": "Feature", "properties": {"norad_id": 40732, "name": "METEOSAT-11 (MSG-4)", "group": "weather", "lat": 0.9224887402782117, "lon": 90.96594579597546, "alt_km": 35788.22642725669, "timestamp": "2025-12-18T23:35:48.688829+00:00", "meta": {"OBJECT_NAME": "METEOSAT-11 (MSG-4)", "OBJECT_ID": "2015-034A", "EPOCH": "2025-12-18T06:29:27.376800", "MEAN_MOTION": 1.00269219, "ECCENTRICITY": 8.854e-05, "INCLINATION": 2.7498, "RA_OF_ASC_NODE": 71.9876, "ARG_OF_PERICENTER": 134.1777, "MEAN_ANOMALY": 347.5537, "EPHEMERIS_TYPE": 0, "CLASSIFICATION_TYPE": "U", "NORAD_CAT_ID": 40732, "ELEMENT_SET_NO": 999, "REV_AT_EPOCH": 540, "BSTAR": 0, "MEAN_MOTION_DOT": 8.4e-07, "MEAN_MOTION_DDOT": 0}, "tle": {"line1": "1 40732U 15034A   25352.27045575  .00000084  00000+0  00000+0 0  9991", "line2": "2 40732   2.7498  71.9876 0000885 134.1777 347.5537  1.00269219  5400"}}, "geometry": {"type": "Point", "coordinates": [90.96594579597546, 0.9224887402782117]}}, {"type": "Feature", "properties": {"norad_id": 41105, "name": "ELEKTRO-L 2", "group": "weather", "lat": -0.5654250652920866, "lon": 67.35768277428726, "alt_km": 35798.53305294463, "timestamp": "2025-12-18T23:35:48.688840+00:00", "meta": {"OBJECT_NAME": "ELEKTRO-L 2", "OBJECT_ID": "2015-074A", "EPOCH": "2025-12-18T01:14:27.090816", "MEAN_MOTION": 1.00272597, "ECCENTRICITY": 0.00035785, "INCLINATION": 6.2385, "RA_OF_ASC_NODE": 72.7657, "ARG_OF_PERICENTER": 208.6234, "MEAN_ANOMALY": 169.659, "EPHEMERIS_TYPE": 0, "CLASSIFICATION_TYPE": "U", "NORAD_CAT_ID": 41105, "ELEMENT_SET_NO": 999, "REV_AT_EPOCH": 3669, "BSTAR": 0, "MEAN_MOTION_DOT": -9.7e-07, "MEAN_MOTION_DDOT": 0}, "tle": {"line1": "1 41105U 15074A   25352.05170244 -.00000097  00000+0  00000+0 0  9993", "line2": "2 41105   6.2385  72.7657 0003578 208.6234 169.6590  1.00272597 36692"}}, "geometry": {"type": "Point", "coordinates": [67.35768277428726, -0.5654250652920866]}}, {"type": "Feature", "properties": {"norad_id": 41752, "name": "INSAT-3DR", "group": "weather", "lat": 0.1031045343669323, "lon": 155.62217379896236, "alt_km": 35812.082253576285, "timestamp": "2025-12-18T23:35:48.688853+00:00", "meta": {"OBJECT_NAME": "INSAT-3DR", "OBJECT_ID": "2016-054A", "EPOCH": "2025-12-18T13:38:54.645792", "MEAN_MOTION": 1.00271614, "ECCENTRICITY": 0.00141407, "INCLINATION": 0.1063, "RA_OF_ASC_NODE": 86.557, "ARG_OF_PERICENTER": 184.8811, "MEAN_ANOMALY": 94.7084, "EPHEMERIS_TYPE": 0, "CLASSIFICATION_TYPE": "U", "NORAD_CAT_ID": 41752, "ELEMENT_SET_NO": 999, "REV_AT_EPOCH": 3400, "BSTAR": 0, "MEAN_MOTION_DOT": -5.2e-07, "MEAN_MOTION_DDOT": 0}, "tle": {"line1": "1 41752U 16054A   25352.56868803 -.00000052  00000+0  00000+0 0  9992", "line2": "2 41752   0.1063  86.5570 0014140 184.8811  94.7084  1.00271614 34004"}}, "geometry": {"type": "Point", "coordinates": [155.62217379896236, 0.1031045343669323]}}]}